{
  "type": "FeatureCollection",
  "features": [
    {
      "type": "Feature",
      "properties": {
        "norad_id": 2807,
        "name": "OPS 7218 (TRANSIT 16)",
        "group": "nnss",
        "lat": 53.23461720197631,
        "lon": 173.62949690513042,
        "alt_km": 1048.559944403889,
        "timestamp": "2025-12-11T05:00:26.577180+00:00",
        "meta_object_name": "OPS 7218 (TRANSIT 16)",
        "meta_object_id": "1967-048A",
        "meta_epoch": "2025-12-10T18:34:20.767872",
        "meta_mean_motion": 13.50721655,
        "meta_eccentricity": 0.00218751,
        "meta_inclination": 89.6732,
        "meta_ra_of_asc_node": 354.0815,
        "meta_arg_of_pericenter": 119.3253,
        "meta_mean_anomaly": 54.3895,
        "meta_ephemeris_type": 0,
        "meta_classification_type": "U",
        "meta_norad_cat_id": 2807,
        "meta_element_set_no": 999,
        "meta_rev_at_epoch": 88249,
        "meta_bstar": 0.00020314284,
        "meta_mean_motion_dot": 1.41e-06,
        "meta_mean_motion_ddot": 0,
        "tle_line1": "1 02807U 67048A   25344.77385148  .00000141  00000+0  20314-3 0  9991",
        "tle_line2": "2 02807  89.6732 354.0815 0021875 119.3253  54.3895 13.50721655882497"
      },
      "geometry": {
        "type": "Point",
        "coordinates": [
          173.62949690513042,
          53.23461720197631
        ]
      }
    },
    {
      "type": "Feature",
      "properties": {
        "norad_id": 2965,
        "name": "OPS 4947 (TRANSIT 17)",
        "group": "nnss",
        "lat": 4.242219896391328,
        "lon": -155.50321772768808,
        "alt_km": 1046.5404821738866,
        "timestamp": "2025-12-11T05:00:26.577202+00:00",
        "meta_object_name": "OPS 4947 (TRANSIT 17)",
        "meta_object_id": "1967-092A",
        "meta_epoch": "2025-12-10T21:54:04.522176",
        "meta_mean_motion": 13.53452762,
        "meta_eccentricity": 0.00460783,
        "meta_inclination": 89.2497,
        "meta_ra_of_asc_node": 24.575,
        "meta_arg_of_pericenter": 239.9876,
        "meta_mean_anomaly": 294.3166,
        "meta_ephemeris_type": 0,
        "meta_classification_type": "U",
        "meta_norad_cat_id": 2965,
        "meta_element_set_no": 999,
        "meta_rev_at_epoch": 87072,
        "meta_bstar": 0.00023079491,
        "meta_mean_motion_dot": 1.67e-06,
        "meta_mean_motion_ddot": 0,
        "tle_line1": "1 02965U 67092A   25344.91255234  .00000167  00000+0  23079-3 0  9992",
        "tle_line2": "2 02965  89.2497  24.5750 0046078 239.9876 294.3166 13.53452762870728"
      },
      "geometry": {
        "type": "Point",
        "coordinates": [
          -155.50321772768808,
          4.242219896391328
        ]
      }
    },
    {
      "type": "Feature",
      "properties": {
        "norad_id": 3133,
        "name": "OPS 7034 (TRANSIT 18)",
        "group": "nnss",
        "lat": -24.15719699491045,
        "lon": -86.35310827675221,
        "alt_km": 1124.2670500769773,
        "timestamp": "2025-12-11T05:00:26.577215+00:00",
        "meta_object_name": "OPS 7034 (TRANSIT 18)",
        "meta_object_id": "1968-012A",
        "meta_epoch": "2025-12-10T18:37:36.266880",
        "meta_mean_motion": 13.51564951,
        "meta_eccentricity": 0.00736582,
        "meta_inclination": 90.0278,
        "meta_ra_of_asc_node": 273.6332,
        "meta_arg_of_pericenter": 174.8207,
        "meta_mean_anomaly": 217.6112,
        "meta_ephemeris_type": 0,
        "meta_classification_type": "U",
        "meta_norad_cat_id": 3133,
        "meta_element_set_no": 999,
        "meta_rev_at_epoch": 56892,
        "meta_bstar": 0.00025359784,
        "meta_mean_motion_dot": 1.78e-06,
        "meta_mean_motion_ddot": 0,
        "tle_line1": "1 03133U 68012A   25344.77611420  .00000178  00000+0  25360-3 0  9997",
        "tle_line2": "2 03133  90.0278 273.6332 0073658 174.8207 217.6112 13.51564951568922"
      },
      "geometry": {
        "type": "Point",
        "coordinates": [
          -86.35310827675221,
          -24.15719699491045
        ]
      }
    },
    {
      "type": "Feature",
      "properties": {
        "norad_id": 4507,
        "name": "NNSS 19 (TRANSIT 19)",
        "group": "nnss",
        "lat": -51.16668311559444,
        "lon": -125.46040004543062,
        "alt_km": 949.5760415523719,
        "timestamp": "2025-12-11T05:00:26.577226+00:00",
        "meta_object_name": "NNSS 19 (TRANSIT 19)",
        "meta_object_id": "1970-067A",
        "meta_epoch": "2025-12-10T06:09:04.713984",
        "meta_mean_motion": 13.51314209,
        "meta_eccentricity": 0.0170695,
        "meta_inclination": 90.0056,
        "meta_ra_of_asc_node": 234.5321,
        "meta_arg_of_pericenter": 300.6377,
        "meta_mean_anomaly": 57.8039,
        "meta_ephemeris_type": 0,
        "meta_classification_type": "U",
        "meta_norad_cat_id": 4507,
        "meta_element_set_no": 999,
        "meta_rev_at_epoch": 72188,
        "meta_bstar": 0.00026981,
        "meta_mean_motion_dot": 1.99e-06,
        "meta_mean_motion_ddot": 0,
        "tle_line1": "1 04507U 70067A   25344.25630456  .00000199  00000+0  26981-3 0  9992",
        "tle_line2": "2 04507  90.0056 234.5321 0170695 300.6377  57.8039 13.51314209721889"
      },
      "geometry": {
        "type": "Point",
        "coordinates": [
          -125.46040004543062,
          -51.16668311559444
        ]
      }
    },
    {
      "type": "Feature",
      "properties": {
        "norad_id": 6909,
        "name": "NNSS 20 (TRANSIT 20)",
        "group": "nnss",
        "lat": -89.73223184632062,
        "lon": -137.40143072665776,
        "alt_km": 1116.4145097196651,
        "timestamp": "2025-12-11T05:00:26.577237+00:00",
        "meta_object_name": "NNSS 20 (TRANSIT 20)",
        "meta_object_id": "1973-081A",
        "meta_epoch": "2025-12-10T17:11:41.064000",
        "meta_mean_motion": 13.71432763,
        "meta_eccentricity": 0.01566118,
        "meta_inclination": 89.8563,
        "meta_ra_of_asc_node": 255.0844,
        "meta_arg_of_pericenter": 84.3061,
        "meta_mean_anomaly": 277.5936,
        "meta_ephemeris_type": 0,
        "meta_classification_type": "U",
        "meta_norad_cat_id": 6909,
        "meta_element_set_no": 999,
        "meta_rev_at_epoch": 80333,
        "meta_bstar": 0.00033403601,
        "meta_mean_motion_dot": 3.4e-06,
        "meta_mean_motion_ddot": 0,
        "tle_line1": "1 06909U 73081A   25344.71644750  .00000340  00000+0  33404-3 0  9998",
        "tle_line2": "2 06909  89.8563 255.0844 0156611  84.3061 277.5936 13.71432763803338"
      },
      "geometry": {
        "type": "Point",
        "coordinates": [
          -137.40143072665776,
          -89.73223184632062
        ]
      }
    },
    {
      "type": "Feature",
      "properties": {
        "norad_id": 10457,
        "name": "TRANSAT",
        "group": "nnss",
        "lat": -33.31096071622365,
        "lon": 78.41989675824229,
        "alt_km": 1095.0680346225054,
        "timestamp": "2025-12-11T05:00:26.577248+00:00",
        "meta_object_name": "TRANSAT",
        "meta_object_id": "1977-106A",
        "meta_epoch": "2025-12-10T17:29:48.058944",
        "meta_mean_motion": 13.48943195,
        "meta_eccentricity": 0.00252032,
        "meta_inclination": 89.6482,
        "meta_ra_of_asc_node": 78.6682,
        "meta_arg_of_pericenter": 195.3496,
        "meta_mean_anomaly": 323.5194,
        "meta_ephemeris_type": 0,
        "meta_classification_type": "U",
        "meta_norad_cat_id": 10457,
        "meta_element_set_no": 999,
        "meta_rev_at_epoch": 36716,
        "meta_bstar": 0.00019661222,
        "meta_mean_motion_dot": 1.33e-06,
        "meta_mean_motion_ddot": 0,
        "tle_line1": "1 10457U 77106A   25344.72902846  .00000133  00000+0  19661-3 0  9996",
        "tle_line2": "2 10457  89.6482  78.6682 0025203 195.3496 323.5194 13.48943195367169"
      },
      "geometry": {
        "type": "Point",
        "coordinates": [
          78.41989675824229,
          -33.31096071622365
        ]
      }
    },
    {
      "type": "Feature",
      "properties": {
        "norad_id": 12458,
        "name": "NOVA 1",
        "group": "nnss",
        "lat": 9.0916699858443,
        "lon": 91.43042325543807,
        "alt_km": 1175.6211414511945,
        "timestamp": "2025-12-11T05:00:26.577258+00:00",
        "meta_object_name": "NOVA 1",
        "meta_object_id": "1981-044A",
        "meta_epoch": "2025-12-10T18:50:58.356960",
        "meta_mean_motion": 13.23278241,
        "meta_eccentricity": 0.00158733,
        "meta_inclination": 89.8524,
        "meta_ra_of_asc_node": 91.4128,
        "meta_arg_of_pericenter": 108.7936,
        "meta_mean_anomaly": 45.5089,
        "meta_ephemeris_type": 0,
        "meta_classification_type": "U",
        "meta_norad_cat_id": 12458,
        "meta_element_set_no": 999,
        "meta_rev_at_epoch": 15160,
        "meta_bstar": 0.00017052083,
        "meta_mean_motion_dot": 8.1e-07,
        "meta_mean_motion_ddot": 0,
        "tle_line1": "1 12458U 81044A   25344.78539765  .00000081  00000+0  17052-3 0  9991",
        "tle_line2": "2 12458  89.8524  91.4128 0015873 108.7936  45.5089 13.23278241151608"
      },
      "geometry": {
        "type": "Point",
        "coordinates": [
          91.43042325543807,
          9.0916699858443
        ]
      }
    }
  ]
}